SKYSAT-A                
1 39418U 13066C   26065.19494650  .00004049  00000+0  23628-3 0  9998
2 39418  97.3957 117.8467 0020354 313.4986  46.4552 15.12322561672918
SKYSAT-B                
1 40072U 14037D   26065.29939735  .00002463  00000+0  27694-3 0  9999
2 40072  98.3725  18.4942 0004242 247.6363 112.4403 14.87710397630663
SKYSAT-C1               
1 41601U 16040C   26065.04900784  .00010713  00000+0  32342-3 0  9992
2 41601  96.9703 102.4170 0003810  60.9373 299.2252 15.34420377542045
SKYSAT-C4               
1 41771U 16058B   26065.28814979  .00019095  00000+0  40319-3 0  9990
2 41771  96.9290  91.5462 0000824  97.1935 262.9409 15.45228474529563
SKYSAT-C5               
1 41772U 16058C   26065.10797012  .00009256  00000+0  28173-3 0  9992
2 41772  97.0616 110.3271 0001813  85.2911 274.8540 15.34205822527945
SKYSAT-C2               
1 41773U 16058D   26065.13370987  .00013232  00000+0  33788-3 0  9991
2 41773  97.0280  91.2252 0005186  75.8158 284.3664 15.39584288529186
SKYSAT-C3               
1 41774U 16058E   26065.26182539  .00023595  00000+0  45033-3 0  9999
2 41774  96.9176 100.2785 0001616 106.4419 253.7010 15.48133107530161
SKYSAT-C11              
1 42987U 17068A   26065.30012889  .00034196  00000+0  56584-3 0  9995
2 42987  97.4198 210.1730 0000735  83.2320 276.9017 15.52129717467253
SKYSAT-C10              
1 42988U 17068B   26065.27147925  .00012978  00000+0  41480-3 0  9995
2 42988  97.4335 201.3671 0001087  90.7446 269.3921 15.32577709466587
SKYSAT-C9               
1 42989U 17068C   26065.33167458  .00017605  00000+0  46057-3 0  9993
2 42989  97.4262 201.4360 0009728 143.8914 216.2990 15.38754361466925
SKYSAT-C8               
1 42990U 17068D   26064.34766968  .00006863  00000+0  20698-3 0  9993
2 42990  97.4349 199.8628 0000859 119.9658 240.1671 15.34624389466378
SKYSAT-C7               
1 42991U 17068E   26065.31570345  .00014758  00000+0  44176-3 0  9993
2 42991  97.4363 201.8214 0007364 113.7632 246.4384 15.34611131466586
SKYSAT-C6               
1 42992U 17068F   26065.30715188  .00019266  00000+0  61733-3 0  9996
2 42992  97.4392 202.1075 0003636 135.6289 224.5244 15.32403080466556
SKYSAT-C12              
1 43797U 18099AR  26065.06808615  .00017260  00000+0  36186-3 0  9992
2 43797  96.9380  92.6371 0005087 147.8494 212.3068 15.45445380405912
SKYSAT-C13              
1 43802U 18099AW  26065.11009938  .00083844  00000+0  53850-3 0  9994
2 43802  96.9411 112.7384 0003628 211.8045 148.3003 15.75982742406600
FLOCK 4Q-16             
1 58271U 23174R   26065.19261948  .00025639  00000+0  55238-3 0  9999
2 58271  97.3870 151.2634 0007950 169.7945 190.3466 15.44551753129655
